{"type": "FeatureCollection", "features": [ {"type": "Feature", "properties": {"norad_id": 30173, "name": "FENGYUN 1C DEB", "group": "fengyun-1c-debris", "lat": 70.40393009161285, "lon": 37.38442417520509, "alt_km": 903.1442241258792, "timestamp": "2025-12-18T23:35:49.334861+00:00", "meta": {"OBJECT_NAME": "FENGYUN 1C DEB", "OBJECT_ID": "1999-025UE", "EPOCH": "2025-12-18T04:50:08.971008", "MEAN_MOTION": 14.11415471, "ECCENTRICITY": 0.00808711, "INCLINATION": 98.9769, "RA_OF_ASC_NODE": 62.9629, "ARG_OF_PERICENTER": 273.0982, "MEAN_ANOMALY": 149.3689, "EPHEMERIS_TYPE": 0, "CLASSIFICATION_TYPE": "U", "NORAD_CAT_ID": 30173, "ELEMENT_SET_NO": 999, "REV_AT_EPOCH": 96626, "BSTAR": 0.0013354192, "MEAN_MOTION_DOT": 2.448e-05, "MEAN_MOTION_DDOT": 0}, "tle": {"line1": "1 30173U 99025UE  25352.20149272  .00002448  00000+0  13354-2 0  9998", "line2": "2 30173  98.9769  62.9629 0080871 273.0982 149.3689 14.11415471966261"}}, "geometry": {"type": "Point", "coordinates": [37.38442417520509, 70.40393009161285]}}, {"type": "Feature", "properties": {"norad_id": 30174, "name": "FENGYUN 1C DEB", "group": "fengyun-1c-debris", "lat": -30.36395661217912, "lon": -42.787941237453765, "alt_km": 643.6298670032729, "timestamp": "2025-12-18T23:35:49.334871+00:00", "meta": {"OBJECT_NAME": "FENGYUN 1C DEB", "OBJECT_ID": "1999-025UF", "EPOCH": "2025-12-18T09:56:16.467936", "MEAN_MOTION": 14.81390095, "ECCENTRICITY": 0.00183899, "INCLINATION": 98.7755, "RA_OF_ASC_NODE": 141.7816, "ARG_OF_PERICENTER": 26.7536, "MEAN_ANOMALY": 30.5189, "EPHEMERIS_TYPE": 0, "CLASSIFICATION_TYPE": "U", "NORAD_CAT_ID": 30174, "ELEMENT_SET_NO": 999, "REV_AT_EPOCH": 98452, "BSTAR": 0.0036222411, "MEAN_MOTION_DOT": 0.00028453, "MEAN_MOTION_DDOT": 0}, "tle": {"line1": "1 30174U 99025UF  25352.41407949  .00028453  00000+0  36222-2 0  9993", "line2": "2 30174  98.7755 141.7816 0018389  26.7536  30.5189 14.81390095984528"}}, "geometry": {"type": "Point", "coordinates": [-42.787941237453765, -30.36395661217912]}}, {"type": "Feature", "properties": {"norad_id": 30175, "name": "FENGYUN 1C DEB", "group": "fengyun-1c-debris", "lat": -77.60223823639998, "lon": -179.72071217186647, "alt_km": 912.096061551254, "timestamp": "2025-12-18T23:35:49.334881+00:00", "meta": {"OBJECT_NAME": "FENGYUN 1C DEB", "OBJECT_ID": "1999-025UG", "EPOCH": "2025-12-18T03:34:09.814080", "MEAN_MOTION": 13.83872294, "ECCENTRICITY": 0.0146516, "INCLINATION": 99.3806, "RA_OF_ASC_NODE": 48.2088, "ARG_OF_PERICENTER": 198.2944, "MEAN_ANOMALY": 226.8888, "EPHEMERIS_TYPE": 0, "CLASSIFICATION_TYPE": "U", "NORAD_CAT_ID": 30175, "ELEMENT_SET_NO": 999, "REV_AT_EPOCH": 95415, "BSTAR": 0.00035812349, "MEAN_MOTION_DOT": 3.86e-06, "MEAN_MOTION_DDOT": 0}, "tle": {"line1": "1 30175U 99025UG  25352.14872470  .00000386  00000+0  35812-3 0  9999", "line2": "2 30175  99.3806  48.2088 0146516 198.2944 226.8888 13.83872294954156"}}, "geometry": {"type": "Point", "coordinates": [-179.72071217186647, -77.60223823639998]}}, {"type": "Feature", "properties": {"norad_id": 30177, "name": "FENGYUN 1C DEB", "group": "fengyun-1c-debris", "lat": -50.53622013520276, "lon": -53.43493372749698, "alt_km": 1364.2994688232366, "timestamp": "2025-12-18T23:35:49.334892+00:00", "meta": {"OBJECT_NAME": "FENGYUN 1C DEB", "OBJECT_ID": "1999-025UJ", "EPOCH": "2025-12-17T19:57:01.576800", "MEAN_MOTION": 13.6282566, "ECCENTRICITY": 0.04518513, "INCLINATION": 98.6268, "RA_OF_ASC_NODE": 294.9149, "ARG_OF_PERICENTER": 124.9579, "MEAN_ANOMALY": 295.8171, "EPHEMERIS_TYPE": 0, "CLASSIFICATION_TYPE": "U", "NORAD_CAT_ID": 30177, "ELEMENT_SET_NO": 999, "REV_AT_EPOCH": 93532, "BSTAR": 0.00072258731, "MEAN_MOTION_DOT": 1.092e-05, "MEAN_MOTION_DDOT": 0}, "tle": {"line1": "1 30177U 99025UJ  25351.83126825  .00001092  00000+0  72259-3 0  9993", "line2": "2 30177  98.6268 294.9149 0451851 124.9579 295.8171 13.62825660935322"}}, "geometry": {"type": "Point", "coordinates": [-53.43493372749698, -50.53622013520276]}}, {"type": "Feature", "properties": {"norad_id": 30178, "name": "FENGYUN 1C DEB", "group": "fengyun-1c-debris", "lat": 68.729476332974, "lon": 81.91292129043876, "alt_km": 826.0622787326247, "timestamp": "2025-12-18T23:35:49.334902+00:00", "meta": {"OBJECT_NAME": "FENGYUN 1C DEB", "OBJECT_ID": "1999-025UK", "EPOCH": "2025-12-18T14:23:29.357376", "MEAN_MOTION": 13.58704117, "ECCENTRICITY": 0.02807846, "INCLINATION": 102.2606, "RA_OF_ASC_NODE": 227.4777, "ARG_OF_PERICENTER": 113.6702, "MEAN_ANOMALY": 278.8325, "EPHEMERIS_TYPE": 0, "CLASSIFICATION_TYPE": "U", "NORAD_CAT_ID": 30178, "ELEMENT_SET_NO": 999, "REV_AT_EPOCH": 93251, "BSTAR": 0.0015344332, "MEAN_MOTION_DOT": 1.39e-05, "MEAN_MOTION_DDOT": 0}, "tle": {"line1": "1 30178U 99025UK  25352.59964534  .00001390  00000+0  15344-2 0  9997", "line2": "2 30178 102.2606 227.4777 0280784 113.6702 278.8325 13.58704117932515"}}, "geometry": {"type": "Point", "coordinates": [81.91292129043876, 68.729476332974]}}, {"type": "Feature", "properties": {"norad_id": 30181, "name": "FENGYUN 1C DEB", "group": "fengyun-1c-debris", "lat": -40.13272663347661, "lon": -111.26015978958547, "alt_km": 815.0359409592784, "timestamp": "2025-12-18T23:35:49.334912+00:00", "meta": {"OBJECT_NAME": "FENGYUN 1C DEB", "OBJECT_ID": "1999-025UN", "EPOCH": "2025-12-18T12:32:24.400032", "MEAN_MOTION": 14.29286911, "ECCENTRICITY": 0.004001, "INCLINATION": 98.8437, "RA_OF_ASC_NODE": 75.8146, "ARG_OF_PERICENTER": 342.4074, "MEAN_ANOMALY": 29.4219, "EPHEMERIS_TYPE": 0, "CLASSIFICATION_TYPE": "U", "NORAD_CAT_ID": 30181, "ELEMENT_SET_NO": 999, "REV_AT_EPOCH": 97594, "BSTAR": 0.0012281763, "MEAN_MOTION_DOT": 3.106e-05, "MEAN_MOTION_DDOT": 0}, "tle": {"line1": "1 30181U 99025UN  25352.52250463  .00003106  00000+0  12282-2 0  9998", "line2": "2 30181  98.8437  75.8146 0040010 342.4074  29.4219 14.29286911975948"}}, "geometry": {"type": "Point", "coordinates": [-111.26015978958547, -40.13272663347661]}}, {"type": "Feature", "properties": {"norad_id": 30182, "name": "FENGYUN 1C DEB", "group": "fengyun-1c-debris", "lat": 66.79224294339147, "lon": 22.006637845786145, "alt_km": 874.5034609376062, "timestamp": "2025-12-18T23:35:49.334922+00:00", "meta": {"OBJECT_NAME": "FENGYUN 1C DEB", "OBJECT_ID": "1999-025UP", "EPOCH": "2025-12-18T09:36:44.540064", "MEAN_MOTION": 13.96459292, "ECCENTRICITY": 0.00747404, "INCLINATION": 99.065, "RA_OF_ASC_NODE": 43.2931, "ARG_OF_PERICENTER": 7.1593, "MEAN_ANOMALY": 12.9103, "EPHEMERIS_TYPE": 0, "CLASSIFICATION_TYPE": "U", "NORAD_CAT_ID": 30182, "ELEMENT_SET_NO": 999, "REV_AT_EPOCH": 96387, "BSTAR": 2.0433249e-05, "MEAN_MOTION_DOT": -1.5e-07, "MEAN_MOTION_DDOT": 0}, "tle": {"line1": "1 30182U 99025UP  25352.40051551 -.00000015  00000+0  20433-4 0  9999", "line2": "2 30182  99.0650  43.2931 0074740   7.1593  12.9103 13.96459292963873"}}, "geometry": {"type": "Point", "coordinates": [22.006637845786145, 66.79224294339147]}}, {"type": "Feature", "properties": {"norad_id": 30183, "name": "FENGYUN 1C DEB", "group": "fengyun-1c-debris", "lat": -53.2808810051417, "lon": -156.86592096521042, "alt_km": 838.2572373578523, "timestamp": "2025-12-18T23:35:49.334933+00:00", "meta": {"OBJECT_NAME": "FENGYUN 1C DEB", "OBJECT_ID": "1999-025UQ", "EPOCH": "2025-12-18T08:59:55.080384", "MEAN_MOTION": 14.12673182, "ECCENTRICITY": 0.00261808, "INCLINATION": 98.7881, "RA_OF_ASC_NODE": 34.507, "ARG_OF_PERICENTER": 236.8678, "MEAN_ANOMALY": 145.5776, "EPHEMERIS_TYPE": 0, "CLASSIFICATION_TYPE": "U", "NORAD_CAT_ID": 30183, "ELEMENT_SET_NO": 999, "REV_AT_EPOCH": 97223, "BSTAR": 0.00045288026, "MEAN_MOTION_DOT": 7.98e-06, "MEAN_MOTION_DDOT": 0}, "tle": {"line1": "1 30183U 99025UQ  25352.37494306  .00000798  00000+0  45288-3 0  9996", "line2": "2 30183  98.7881  34.5070 0026180 236.8678 145.5776 14.12673182972237"}}, "geometry": {"type": "Point", "coordinates": [-156.86592096521042, -53.2808810051417]}}, {"type": "Feature", "properties": {"norad_id": 30191, "name": "FENGYUN 1C DEB", "group": "fengyun-1c-debris", "lat": -4.889286014160057, "lon": -116.03765217393389, "alt_km": 603.145059234329, "timestamp": "2025-12-18T23:35:49.334943+00:00", "meta": {"OBJECT_NAME": "FENGYUN 1C DEB", "OBJECT_ID": "1999-025UY", "EPOCH": "2025-12-18T05:12:11.068992", "MEAN_MOTION": 14.78111592, "ECCENTRICITY": 0.0097121, "INCLINATION": 98.7761, "RA_OF_ASC_NODE": 63.885, "ARG_OF_PERICENTER": 246.1017, "MEAN_ANOMALY": 183.8247, "EPHEMERIS_TYPE": 0, "CLASSIFICATION_TYPE": "U", "NORAD_CAT_ID": 30191, "ELEMENT_SET_NO": 999, "REV_AT_EPOCH": 356, "BSTAR": 0.0011168567, "MEAN_MOTION_DOT": 8.683e-05, "MEAN_MOTION_DDOT": 0}, "tle": {"line1": "1 30191U 99025UY  25352.21679478  .00008683  00000+0  11169-2 0  9994", "line2": "2 30191  98.7761  63.8850 0097121 246.1017 183.8247 14.78111592  3561"}}, "geometry": {"type": "Point", "coordinates": [-116.03765217393389, -4.889286014160057]}}, {"type": "Feature", "properties": {"norad_id": 30193, "name": "FENGYUN 1C DEB", "group": "fengyun-1c-debris", "lat": -28.9430533256957, "lon": -93.68081872604778, "alt_km": 795.4394965950678, "timestamp": "2025-12-18T23:35:49.334953+00:00", "meta": {"OBJECT_NAME": "FENGYUN 1C DEB", "OBJECT_ID": "1999-025VA", "EPOCH": "2025-12-18T15:45:33.928416", "MEAN_MOTION": 14.49149837, "ECCENTRICITY": 0.01074529, "INCLINATION": 98.7569, "RA_OF_ASC_NODE": 261.0905, "ARG_OF_PERICENTER": 115.3549, "MEAN_ANOMALY": 313.4748, "EPHEMERIS_TYPE": 0, "CLASSIFICATION_TYPE": "U", "NORAD_CAT_ID": 30193, "ELEMENT_SET_NO": 999, "REV_AT_EPOCH": 99252, "BSTAR": 0.00049010166, "MEAN_MOTION_DOT": 1.955e-05, "MEAN_MOTION_DDOT": 0}, "tle": {"line1": "1 30193U 99025VA  25352.65664269  .00001955  00000+0  49010-3 0  9998", "line2": "2 30193  98.7569 261.0905 0107452 115.3549 313.4748 14.49149837992529"}}, "geometry": {"type": "Point", "coordinates": [-93.68081872604778, -28.9430533256957]}}]}